#aV2015  2 13  0  0  0.00000000     288 DD+AD WGS84 FIT  NGA
## 1831 432000.00000000   300.00000000 57066 0.0000000000000
+   31     1  2  3  4  5  6  7  8  9 10 11 12 13 14 15 16 17
+         18 19 20 21 22 23 24 25 27 28 29 30 31 32  0  0  0
+          0  0  0  0  0  0  0  0  0  0  0  0  0  0  0  0  0
+          0  0  0  0  0  0  0  0  0  0  0  0  0  0  0  0  0
+          0  0  0  0  0  0  0  0  0  0  0  0  0  0  0  0  0
++         2  2  2  2  2  2  2  2  2  2  2  2  2  2  2  2  2
++         2  2  2  2  2  2  2  2  2  2  2  2  2  2  0  0  0
++         0  0  0  0  0  0  0  0  0  0  0  0  0  0  0  0  0
++         0  0  0  0  0  0  0  0  0  0  0  0  0  0  0  0  0
++         0  0  0  0  0  0  0  0  0  0  0  0  0  0  0  0  0
%c cc cc ccc ccc cccc cccc cccc cccc ccccc ccccc ccccc ccccc
%c cc cc ccc ccc cccc cccc cccc cccc ccccc ccccc ccccc ccccc
%f  0.0000000  0.000000000  0.00000000000  0.000000000000000
%f  0.0000000  0.000000000  0.00000000000  0.000000000000000
%i    0    0    0    0      0      0      0      0         0
%i    0    0    0    0      0      0      0      0         0
/*      NGA, ST. LOUIS,MO.                                  
/*   EPHEMERIS COMPUTED FROM  1 DAYS OF DATA                
/*   EPOCHA SMOOTHER                                       
/* CCCCCCCCCCCCCCCCCCCCCCCCCCCCCCCCCCCCCCCCCCCCCCCCCCCCCCCCC
*  2015  2 13 11 45  0.00000000
P  1  10271.547952  13528.979572 -20509.792590     -9.060575                    
V  1 -25736.315819   2884.624365 -10845.067404      0.004218                    
P  2  14160.920555 -14369.404450  17378.545705    547.708130                    
V  2  21760.071973   -237.745098 -18764.284393      0.022921                    
P  3  12879.877586  22915.763677  -3627.469994    206.776008                    
V  3  -4994.658457  -2148.437335 -31304.873900      0.208917                    
P  4   -923.490359  15908.863968 -21546.884962     -7.120686                    
V  4 -26637.680799   2192.705604   3065.457440     -0.005648                    
P  5   3147.403208 -18662.376668  18510.929978   -279.665653                    
V  5  15131.021236  18357.843522  16064.690626      0.050968                    
P  6  25045.438901  -6412.391863   6047.547281     80.652569                    
V  6   7893.399137   2008.338977 -30543.978120      0.113146                    
P  7  22092.730279   7609.886108  13056.948673    439.908931                    
V  7 -16132.734042   2688.692216  25575.092455      0.031603                    
P  8 -16085.943394  10946.406453  17969.578194     17.652459                    
V  8 -22508.034944  -2338.369607 -19532.677536      0.002804                    
P  9  12138.656117   9755.147850  21505.556031    -85.587466                    
V  9 -11908.685362  24613.762643  -4451.060975     -0.114928                    
P 10  17075.582110   -874.910201  20043.402629   -163.147237                    
V 10  13972.016347  22267.513151 -10308.853912     -0.017023                    
P 11   3988.306462  16616.166528 -20846.630750   -557.585651                    
V 11 -23644.974825   9925.196900   3622.803780     -0.026034                    
P 12  -9994.969516 -23871.062045  -6562.110287    269.021191                    
V 12   5738.812069   6013.335580 -30789.623205      0.029521                    
P 13  12671.258630 -23343.839176  -2024.620510    -87.825469                    
V 13   3162.524476   -848.679193  31846.712824     -0.035671                    
P 14 -18352.378800   9548.352464 -16346.215231     87.814127                    
V 14   8822.354760 -19401.561035 -21085.640419     -0.035040                    
P 15    402.173025 -23672.425025 -11794.159216   -232.030684                    
V 15   8794.824300 -12614.197855  26122.488598     -0.022250                    
P 16  -3842.495371  17839.521073  19093.703487   -156.692864                    
V 16 -13677.978536 -20282.644075  16508.225407      0.032939                    
P 17  17744.804408  -7487.084059 -17902.622343   -155.634425                    
V 17  -9426.734407  21450.686328 -18235.990524     -0.020861                    
P 18 -20093.839704 -12403.488150 -11980.605472    379.267130                    
V 18  -6770.907744 -14750.725937  25304.233256      0.027223                    
P 19  -6663.233434  23803.989200  -9245.479752   -500.391340                    
V 19  -8197.962728   8661.938598  29196.598277     -0.014271                    
P 20  20598.221047   8018.469756  14648.428418    289.268372                    
V 20   9712.654117  16503.827580 -22318.919869      0.040880                    
P 21 -24809.469854  -4656.565675   9554.402998   -416.189066                    
V 21  10778.033729  -3907.666309  27714.519078     -0.041006                    
P 22 -17891.809994    353.728468 -19456.606395    317.824260                    
V 22 -13560.145701 -21382.248377  11774.397219      0.041567                    
P 23   5109.350650  18953.838053  17823.067048    -88.476766                    
V 23 -11534.488575  19501.239052 -17985.546581     -0.026367                    
P 24  -6931.603994 -14425.602315 -21244.482241    -43.389174                    
V 24  26723.627521  -3204.317075  -6412.013142     -0.006589                    
P 25 -17789.058931 -19046.603859   5465.184425     -3.454772                    
V 25  -2293.653911  -6937.962987 -31020.427364     -0.027911                    
P 27 -12330.982270  23390.372783   1881.962704     51.154241                    
V 27  -1455.254229  -3331.345835  31814.408001      0.026504                    
P 28  17716.268794   6244.626025 -18195.198691    419.216850                    
V 28  11464.788796  21459.409532  17830.514770      0.026690                    
P 29  -9036.110456 -13520.212359  21038.639845    591.855902                    
V 29  13175.953043 -23116.561409  -9169.968855      0.022920                    
P 30  26337.373356   1927.390649   3078.318341    -84.775706                    
V 30  -3886.535795   2900.986796  31324.263676      0.012705                    
P 31 -24119.931995   7365.887237   9006.827041    323.407794                    
V 31 -11200.615758  -1237.302353 -29106.859279     -0.008401                    
P 32    925.030932  22466.426401 -14555.314926   -224.704995                    
V 32 -10948.279690 -14795.614373 -23002.018669      0.090419                    
EOF
